start=new Date('2023-01-29T00:00:00.000Z').valueOf();
sats=[{"MEAN_MOTION":"15.08844016","DECAY_DATE":null,"BSTAR":"0.00020587000000","ELEMENT_SET_NO":"999","COUNTRY_CODE":"US","MEAN_MOTION_DOT":"0.00002990","SITE":"AFETR","FILE":"3764201","EPHEMERIS_TYPE":"0","ECCENTRICITY":"0.00011020","CENTER_NAME":"EARTH","TLE_LINE2":"2 52347  53.2128 257.8869 0001102  80.4035 279.7081 15.08844016 44316","OBJECT_NAME":"STARLINK-3826","EPOCH":"2023-01-28T21:35:48.075072","OBJECT_TYPE":"PAYLOAD","REV_AT_EPOCH":"4431","SEMIMAJOR_AXIS":"6917.868","TIME_SYSTEM":"UTC","RCS_SIZE":"LARGE","PERIOD":"95.437","MEAN_MOTION_DDOT":"0.0000000000000","TLE_LINE1":"1 52347U 22045S   23028.89986198  .00002990  00000-0  20587-3 0  9992","APOAPSIS":"540.495","CLASSIFICATION_TYPE":"U","OBJECT_ID":"2022-045S","INCLINATION":"53.2128","LAUNCH_DATE":"2022-04-29","RA_OF_ASC_NODE":"257.8869","GP_ID":"223912856","MEAN_ANOMALY":"279.7081","ARG_OF_PERICENTER":"80.4035","PERIAPSIS":"538.971","REF_FRAME":"TEME","NORAD_CAT_ID":"52347","MEAN_ELEMENT_THEORY":"SGP4"},{"DECAY_DATE":null,"MEAN_MOTION":"15.08821690","BSTAR":"0.00051754000000","COUNTRY_CODE":"US","ELEMENT_SET_NO":"999","SITE":"AFETR","MEAN_MOTION_DOT":"0.00007954","FILE":"3764201","EPHEMERIS_TYPE":"0","ECCENTRICITY":"0.00009470","TLE_LINE2":"2 52348  53.2120 257.9651 0000947 117.5858 242.5231 15.08821690 44318","CENTER_NAME":"EARTH","OBJECT_NAME":"STARLINK-3829","EPOCH":"2023-01-28T21:09:18.614880","REV_AT_EPOCH":"4431","OBJECT_TYPE":"PAYLOAD","TIME_SYSTEM":"UTC","SEMIMAJOR_AXIS":"6917.936","PERIOD":"95.439","RCS_SIZE":"LARGE","MEAN_MOTION_DDOT":"0.0000000000000","TLE_LINE1":"1 52348U 22045T   23028.88146545  .00007954  00000-0  51754-3 0  9991","APOAPSIS":"540.456","OBJECT_ID":"2022-045T","CLASSIFICATION_TYPE":"U","INCLINATION":"53.2120","LAUNCH_DATE":"2022-04-29","GP_ID":"223913604","RA_OF_ASC_NODE":"257.9651","MEAN_ANOMALY":"242.5231","ARG_OF_PERICENTER":"117.5858","NORAD_CAT_ID":"52348","REF_FRAME":"TEME","PERIAPSIS":"539.146","MEAN_ELEMENT_THEORY":"SGP4"},{"APOAPSIS":"540.667","TLE_LINE1":"1 52349U 22045U   23028.89249810  .00002920  00000-0  20144-3 0  9999","MEAN_MOTION_DDOT":"0.0000000000000","INCLINATION":"53.2153","OBJECT_ID":"2022-045U","CLASSIFICATION_TYPE":"U","RCS_SIZE":"LARGE","PERIOD":"95.437","SEMIMAJOR_AXIS":"6917.859","TIME_SYSTEM":"UTC","MEAN_ANOMALY":"272.4019","ARG_OF_PERICENTER":"87.7130","MEAN_ELEMENT_THEORY":"SGP4","REF_FRAME":"TEME","PERIAPSIS":"538.781","NORAD_CAT_ID":"52349","LAUNCH_DATE":"2022-04-29","RA_OF_ASC_NODE":"257.9079","GP_ID":"223913343","MEAN_MOTION":"15.08846925","DECAY_DATE":null,"COUNTRY_CODE":"US","ELEMENT_SET_NO":"999","BSTAR":"0.00020144000000","OBJECT_NAME":"STARLINK-3819","CENTER_NAME":"EARTH","TLE_LINE2":"2 52349  53.2153 257.9079 0001363  87.7130 272.4019 15.08846925 44317","OBJECT_TYPE":"PAYLOAD","REV_AT_EPOCH":"4431","EPOCH":"2023-01-28T21:25:11.835840","MEAN_MOTION_DOT":"0.00002920","SITE":"AFETR","ECCENTRICITY":"0.00013630","EPHEMERIS_TYPE":"0","FILE":"3764201"},{"GP_ID":"223912107","RA_OF_ASC_NODE":"257.9767","LAUNCH_DATE":"2022-04-29","MEAN_ELEMENT_THEORY":"SGP4","NORAD_CAT_ID":"52350","PERIAPSIS":"538.888","REF_FRAME":"TEME","MEAN_ANOMALY":"269.4938","ARG_OF_PERICENTER":"90.6194","PERIOD":"95.437","RCS_SIZE":"MEDIUM","TIME_SYSTEM":"UTC","SEMIMAJOR_AXIS":"6917.869","INCLINATION":"53.2138","CLASSIFICATION_TYPE":"U","OBJECT_ID":"2022-045V","APOAPSIS":"540.580","TLE_LINE1":"1 52350U 22045V   23028.87777810  .00000276  00000-0  35403-4 0  9992","MEAN_MOTION_DDOT":"0.0000000000000","ECCENTRICITY":"0.00012230","EPHEMERIS_TYPE":"0","FILE":"3764201","SITE":"AFETR","MEAN_MOTION_DOT":"0.00000276","REV_AT_EPOCH":"4431","OBJECT_TYPE":"PAYLOAD","EPOCH":"2023-01-28T21:04:00.027840","OBJECT_NAME":"STARLINK-3754","CENTER_NAME":"EARTH","TLE_LINE2":"2 52350  53.2138 257.9767 0001223  90.6194 269.4938 15.08843606 44313","COUNTRY_CODE":"US","ELEMENT_SET_NO":"999","BSTAR":"0.00003540300000","DECAY_DATE":null,"MEAN_MOTION":"15.08843606"},{"BSTAR":"0.00010910000000","COUNTRY_CODE":"US","ELEMENT_SET_NO":"999","MEAN_MOTION":"15.08843746","DECAY_DATE":null,"EPOCH":"2023-01-28T22:23:29.384736","OBJECT_TYPE":"PAYLOAD","REV_AT_EPOCH":"4432","TLE_LINE2":"2 52352  53.2147 257.7335 0001188  89.3233 270.7895 15.08843746 44326","CENTER_NAME":"EARTH","OBJECT_NAME":"STARLINK-3838","FILE":"3764141","EPHEMERIS_TYPE":"0","ECCENTRICITY":"0.00011880","MEAN_MOTION_DOT":"0.00001449","SITE":"AFETR","OBJECT_ID":"2022-045X","CLASSIFICATION_TYPE":"U","INCLINATION":"53.2147","MEAN_MOTION_DDOT":"0.0000000000000","TLE_LINE1":"1 52352U 22045X   23028.93297899  .00001449  00000-0  10910-3 0  9993","APOAPSIS":"540.556","SEMIMAJOR_AXIS":"6917.869","TIME_SYSTEM":"UTC","RCS_SIZE":"LARGE","PERIOD":"95.437","PERIAPSIS":"538.912","REF_FRAME":"TEME","NORAD_CAT_ID":"52352","MEAN_ELEMENT_THEORY":"SGP4","ARG_OF_PERICENTER":"89.3233","MEAN_ANOMALY":"270.7895","RA_OF_ASC_NODE":"257.7335","GP_ID":"223888454","LAUNCH_DATE":"2022-04-29"},{"MEAN_MOTION":"15.08839380","DECAY_DATE":null,"BSTAR":"0.00030160000000","ELEMENT_SET_NO":"999","COUNTRY_CODE":"US","MEAN_MOTION_DOT":"0.00004515","SITE":"AFETR","EPHEMERIS_TYPE":"0","FILE":"3764201","ECCENTRICITY":"0.00011010","CENTER_NAME":"EARTH","TLE_LINE2":"2 52353  53.2137 257.9985 0001101  90.6822 269.4297 15.08839380 44312","OBJECT_NAME":"STARLINK-3807","EPOCH":"2023-01-28T20:58:42.374784","OBJECT_TYPE":"PAYLOAD","REV_AT_EPOCH":"4431","SEMIMAJOR_AXIS":"6917.882","TIME_SYSTEM":"UTC","RCS_SIZE":"LARGE","PERIOD":"95.438","MEAN_MOTION_DDOT":"0.0000000000000","APOAPSIS":"540.509","TLE_LINE1":"1 52353U 22045Y   23028.87410156  .00004515  00000-0  30160-3 0  9996","OBJECT_ID":"2022-045Y","CLASSIFICATION_TYPE":"U","INCLINATION":"53.2137","LAUNCH_DATE":"2022-04-29","RA_OF_ASC_NODE":"257.9985","GP_ID":"223913105","MEAN_ANOMALY":"269.4297","ARG_OF_PERICENTER":"90.6822","REF_FRAME":"TEME","PERIAPSIS":"538.986","NORAD_CAT_ID":"52353","MEAN_ELEMENT_THEORY":"SGP4"},{"RCS_SIZE":"LARGE","PERIOD":"95.438","SEMIMAJOR_AXIS":"6917.899","TIME_SYSTEM":"UTC","APOAPSIS":"540.568","TLE_LINE1":"1 52354U 22045Z   23028.92194350  .00002743  00000-0  19041-3 0  9994","MEAN_MOTION_DDOT":"0.0000000000000","INCLINATION":"53.2125","CLASSIFICATION_TYPE":"U","OBJECT_ID":"2022-045Z","LAUNCH_DATE":"2022-04-29","RA_OF_ASC_NODE":"257.7927","GP_ID":"223913843","MEAN_ANOMALY":"268.3303","ARG_OF_PERICENTER":"91.7822","MEAN_ELEMENT_THEORY":"SGP4","REF_FRAME":"TEME","PERIAPSIS":"538.959","NORAD_CAT_ID":"52354","MEAN_MOTION":"15.08833969","DECAY_DATE":null,"ELEMENT_SET_NO":"999","COUNTRY_CODE":"US","BSTAR":"0.00019041000000","MEAN_MOTION_DOT":"0.00002743","SITE":"AFETR","ECCENTRICITY":"0.00011630","EPHEMERIS_TYPE":"0","FILE":"3764201","OBJECT_NAME":"STARLINK-3876","CENTER_NAME":"EARTH","TLE_LINE2":"2 52354  53.2125 257.7927 0001163  91.7822 268.3303 15.08833969 44328","OBJECT_TYPE":"PAYLOAD","REV_AT_EPOCH":"4432","EPOCH":"2023-01-28T22:07:35.918400"},{"MEAN_ANOMALY":"251.6654","ARG_OF_PERICENTER":"108.4463","MEAN_ELEMENT_THEORY":"SGP4","NORAD_CAT_ID":"52355","PERIAPSIS":"538.956","REF_FRAME":"TEME","LAUNCH_DATE":"2022-04-29","GP_ID":"223888441","RA_OF_ASC_NODE":"257.7178","APOAPSIS":"540.538","TLE_LINE1":"1 52355U 22045AA  23028.93666183  .00000842  00000-0  71004-4 0  9990","MEAN_MOTION_DDOT":"0.0000000000000","INCLINATION":"53.2147","CLASSIFICATION_TYPE":"U","OBJECT_ID":"2022-045AA","PERIOD":"95.438","RCS_SIZE":"LARGE","TIME_SYSTEM":"UTC","SEMIMAJOR_AXIS":"6917.882","OBJECT_NAME":"STARLINK-3877","CENTER_NAME":"EARTH","TLE_LINE2":"2 52355  53.2147 257.7178 0001143 108.4463 251.6654 15.08839510 44328","REV_AT_EPOCH":"4432","OBJECT_TYPE":"PAYLOAD","EPOCH":"2023-01-28T22:28:47.582112","SITE":"AFETR","MEAN_MOTION_DOT":"0.00000842","ECCENTRICITY":"0.00011430","FILE":"3764141","EPHEMERIS_TYPE":"0","DECAY_DATE":null,"MEAN_MOTION":"15.08839510","ELEMENT_SET_NO":"999","COUNTRY_CODE":"US","BSTAR":"0.00007100400000"},{"OBJECT_TYPE":"PAYLOAD","REV_AT_EPOCH":"4432","EPOCH":"2023-01-28T22:08:58.136640","OBJECT_NAME":"STARLINK-3801","CENTER_NAME":"EARTH","TLE_LINE2":"2 52356  53.2118 257.7837 0001263  83.0080 277.1055 15.08844160 44320","ECCENTRICITY":"0.00012630","EPHEMERIS_TYPE":"0","FILE":"3764201","MEAN_MOTION_DOT":"0.00001263","SITE":"AFETR","ELEMENT_SET_NO":"999","COUNTRY_CODE":"US","BSTAR":"0.00009741900000","MEAN_MOTION":"15.08844160","DECAY_DATE":null,"MEAN_ELEMENT_THEORY":"SGP4","PERIAPSIS":"538.859","REF_FRAME":"TEME","NORAD_CAT_ID":"52356","MEAN_ANOMALY":"277.1055","ARG_OF_PERICENTER":"83.0080","RA_OF_ASC_NODE":"257.7837","GP_ID":"223912857","LAUNCH_DATE":"2022-04-29","INCLINATION":"53.2118","OBJECT_ID":"2022-045AB","CLASSIFICATION_TYPE":"U","TLE_LINE1":"1 52356U 22045AB  23028.92289510  .00001263  00000-0  97419-4 0  9991","APOAPSIS":"540.606","MEAN_MOTION_DDOT":"0.0000000000000","RCS_SIZE":"LARGE","PERIOD":"95.437","SEMIMAJOR_AXIS":"6917.868","TIME_SYSTEM":"UTC"},{"LAUNCH_DATE":"2022-04-29","RA_OF_ASC_NODE":"258.0553","GP_ID":"223913605","MEAN_ANOMALY":"269.2418","ARG_OF_PERICENTER":"90.8715","MEAN_ELEMENT_THEORY":"SGP4","PERIAPSIS":"538.891","REF_FRAME":"TEME","NORAD_CAT_ID":"52357","RCS_SIZE":"LARGE","PERIOD":"95.438","SEMIMAJOR_AXIS":"6917.879","TIME_SYSTEM":"UTC","APOAPSIS":"540.597","TLE_LINE1":"1 52357U 22045AC  23028.86305822  .00000124  00000-0  25850-4 0  9995","MEAN_MOTION_DDOT":"0.0000000000000","INCLINATION":"53.2117","CLASSIFICATION_TYPE":"U","OBJECT_ID":"2022-045AC","MEAN_MOTION_DOT":"0.00000124","SITE":"AFETR","ECCENTRICITY":"0.00012330","EPHEMERIS_TYPE":"0","FILE":"3764201","OBJECT_NAME":"STARLINK-3821","TLE_LINE2":"2 52357  53.2117 258.0553 0001233  90.8715 269.2418 15.08840459 44318","CENTER_NAME":"EARTH","OBJECT_TYPE":"PAYLOAD","REV_AT_EPOCH":"4431","EPOCH":"2023-01-28T20:42:48.230208","MEAN_MOTION":"15.08840459","DECAY_DATE":null,"COUNTRY_CODE":"US","ELEMENT_SET_NO":"999","BSTAR":"0.00002585000000"}];
